0 ALMASAT-1
1 38078U 12006B   13282.06838899  .00027622  00000-0  66127-3 0  6825
2 38078 069.4760 295.7051 0676309 000.3383 359.8247 14.29772063 85492
0 ALMASAT-1
1 38078U 12006B   13282.48811863  .00029515  00000-0  70734-3 0  6836
2 38078 069.4758 294.7242 0676007 359.8140 000.2726 14.29802897 85553
0 ALMASAT-1
1 38078U 12006B   13282.69798071  .00029657  00000-0  71029-3 0  6840
2 38078 069.4756 294.2334 0676004 359.5410 000.5027 14.29816027 85582
0 ALMASAT-1
1 38078U 12006B   13283.11769022  .00033474  00000-0  80171-3 0  6853
2 38078 069.4770 293.2507 0675711 358.9672 001.0034 14.29858426 85646
0 ALMASAT-1
1 38078U 12006B   13283.25759373  .00034194  00000-0  81818-3 0  6866
2 38078 069.4769 292.9232 0675733 358.8038 001.1459 14.29870359 85667
0 ALMASAT-1
1 38078U 12006B   13283.67729904  .00035057  00000-0  83769-3 0  6887
2 38078 069.4768 291.9409 0675696 358.2747 001.6125 14.29902799 85726
0 ALMASAT-1
1 38078U 12006B   13283.67730275  .00039780  00000-0  94578-3 0  6876
2 38078 069.4749 291.9413 0675639 358.2926 001.6359 14.29916566 85722
0 ALMASAT-1
1 38078U 12006B   13283.81719709  .00036803  00000-0  88202-3 0  6893
2 38078 069.4767 291.6125 0675288 358.0887 001.7971 14.29920637 85740
0 ALMASAT-1
1 38078U 12006B   13284.02703763  .00037426  00000-0  89514-3 0  6901
2 38078 069.4773 291.1214 0675394 357.8145 002.0071 14.29938053 85772
0 ALMASAT-1
1 38078U 12006B   13284.44672240  .00038683  00000-0  91916-3 0  6918
2 38078 069.4765 290.1394 0675844 357.2681 002.4822 14.29973734 85830
0 ALMASAT-1
1 38078U 12006B   13285.42595236  .00037775  00000-0  89814-3 0  6944
2 38078 069.4758 287.8477 0675466 355.9940 003.5890 14.30044780 85974
0 ALMASAT-1
1 38078U 12006B   13285.77566550  .00037452  00000-0  89138-3 0  6951
2 38078 069.4756 287.0303 0675249 355.5468 003.9811 14.30070344 86021
0 ALMASAT-1
1 38078U 12006B   13286.05543126  .00037302  00000-0  88767-3 0  6969
2 38078 069.4753 286.3757 0675171 355.1913 004.2909 14.30090901 86065
0 ALMASAT-1
1 38078U 12006B   13286.40513404  .00037359  00000-0  88699-3 0  6971
2 38078 069.4746 285.5558 0675272 354.7556 004.6756 14.30117278 86114
0 ALMASAT-1
1 38078U 12006B   13286.82476639  .00037980  00000-0  90055-3 0  6985
2 38078 069.4746 284.5741 0675225 354.2191 005.1484 14.30151806 86170
0 ALMASAT-1
1 38078U 12006B   13287.03457731  .00037984  00000-0  90055-3 0  6996
2 38078 069.4746 284.0833 0675161 353.9485 005.3756 14.30167803 86200
0 ALMASAT-1
1 38078U 12006B   13287.45419428  .00039121  00000-0  92538-3 0  7009
2 38078 069.4750 283.1025 0675193 353.4281 005.8317 14.30204320 86262
0 ALMASAT-1
1 38078U 12006B   13287.66399876  .00039162  00000-0  92584-3 0  7013
2 38078 069.4751 282.6119 0675168 353.1585 006.0648 14.30220980 86290
0 ALMASAT-1
1 38078U 12006B   13288.08360049  .00039344  00000-0  92777-3 0  7027
2 38078 069.4750 281.6303 0675254 352.6174 006.5366 14.30255168 86352
0 ALMASAT-1
1 38078U 12006B   13288.50319117  .00040498  00000-0  95630-3 0  7038
2 38078 069.4745 280.6475 0674922 352.0816 007.0098 14.30292845 86411
0 ALMASAT-1
1 38078U 12006B   13288.71298207  .00040709  00000-0  96044-3 0  7043
2 38078 069.4742 280.1565 0674919 351.8069 007.2493 14.30311065 86446
0 ALMASAT-1
1 38078U 12006B   13289.06262846  .00042462  00000-0  10015-2 0  7054
2 38078 069.4750 279.3377 0674747 351.3517 007.6683 14.30347228 86498
0 ALMASAT-1
1 38078U 12006B   13289.41226102  .00043285  00000-0  10219-2 0  7069
2 38078 069.4751 278.5200 0674486 350.9146 008.0278 14.30380064 86544
0 ALMASAT-1
1 38078U 12006B   13289.69196510  .00043467  00000-0  10265-2 0  7072
2 38078 069.4751 277.8653 0674338 350.5503 008.3464 14.30405211 86583
0 ALMASAT-1
1 38078U 12006B   13290.11150730  .00045438  00000-0  10715-2 0  7086
2 38078 069.4759 276.8822 0674240 350.0063 008.8189 14.30450123 86644
0 ALMASAT-1
1 38078U 12006B   13290.32127579  .00046127  00000-0  10851-2 0  7092
2 38078 069.4759 276.3915 0674365 349.7423 009.0496 14.30471515 86670
0 ALMASAT-1
1 38078U 12006B   13290.74080374  .00046299  00000-0  10900-2 0  7106
2 38078 069.4760 275.4095 0674100 349.1994 009.5266 14.30511186 86731
0 ALMASAT-1
1 38078U 12006B   13291.02048206  .00046309  00000-0  10900-2 0  7119
2 38078 069.4760 274.7550 0673997 348.8384 009.8382 14.30537149 86774
0 ALMASAT-1
1 38078U 12006B   13291.43999142  .00046289  00000-0  10917-2 0  7124
2 38078 069.4757 273.7715 0673624 348.2890 010.3192 14.30575442 86836
0 ALMASAT-1
1 38078U 12006B   13291.85948852  .00046466  00000-0  10932-2 0  7137
2 38078 069.4751 272.7877 0673675 347.7502 010.7901 14.30615501 86897
0 ALMASAT-1
1 38078U 12006B   13292.06923307  .00047481  00000-0  11161-2 0  7143
2 38078 069.4747 272.2961 0673629 347.4732 011.0471 14.30639262 86922
0 ALMASAT-1
1 38078U 12006B   13292.48870938  .00048159  00000-0  11351-2 0  7155
2 38078 069.4752 271.3142 0673155 346.9328 011.5181 14.30682074 86986
0 ALMASAT-1
1 38078U 12006B   13292.69844182  .00048378  00000-0  11408-2 0  7167
2 38078 069.4746 270.8228 0673014 346.6583 011.7508 14.30703242 87013
0 ALMASAT-1
1 38078U 12006B   13293.04799211  .00049738  00000-0  11708-2 0  7174
2 38078 069.4743 270.0041 0672983 346.2028 012.1577 14.30742058 87063
0 ALMASAT-1
1 38078U 12006B   13293.53734498  .00050064  00000-0  11781-2 0  7180
2 38078 069.4746 268.8586 0672773 345.5737 012.6981 14.30792179 87132
0 ALMASAT-1
1 38078U 12006B   13293.67715742  .00050070  00000-0  11781-2 0  7194
2 38078 069.4746 268.5312 0672717 345.3932 012.8547 14.30806204 87156
0 ALMASAT-1
1 38078U 12006B   13294.02668331  .00050777  00000-0  11951-2 0  7200
2 38078 069.4751 267.7117 0672500 344.9370 013.2638 14.30843917 87201
0 ALMASAT-1
1 38078U 12006B   13294.37619819  .00050791  00000-0  11951-2 0  7212
2 38078 069.4751 266.8933 0672359 344.4857 013.6504 14.30879480 87259
0 ALMASAT-1
1 38078U 12006B   13294.79560681  .00050848  00000-0  11944-2 0  7226
2 38078 069.4755 265.9103 0672320 343.9475 014.1248 14.30922706 87318
0 ALMASAT-1
1 38078U 12006B   13295.00530582  .00050856  00000-0  11944-2 0  7238
2 38078 069.4755 265.4192 0672235 343.6767 014.3598 14.30944072 87340
0 ALMASAT-1
1 38078U 12006B   13295.35479962  .00050791  00000-0  11902-2 0  7243
2 38078 069.4761 264.6001 0672298 343.2224 014.7585 14.30978791 87390
0 ALMASAT-1
1 38078U 12006B   13295.70428332  .00050677  00000-0  11875-2 0  7250
2 38078 069.4762 263.7813 0672135 342.7717 015.1548 14.31014157 87441
0 ALMASAT-1
1 38078U 12006B   13296.05375992  .00050513  00000-0  11794-2 0  7262
2 38078 069.4764 262.9611 0672322 342.3347 015.5363 14.31048600 87497
